NORAD_CAT_ID,OBJECT_NAME,OBJECT_TYPE,EPOCH,MEAN_MOTION,ECCENTRICITY,INCLINATION,RA_OF_ASC_NODE,ARG_OF_PERICENTER,MEAN_ANOMALY,BSTAR,MEAN_MOTION_DOT,MEAN_MOTION_DDOT,TLE_LINE0,TLE_LINE1,TLE_LINE2,SEMIMAJOR_AXIS,PERIOD,APOGEE,PERIGEE,DECAYED
53634.0,STARLINK-4592,PAYLOAD,2024-04-10 18:21:06,15.08841892,0.0001617,53.2177,117.1319,82.0186,278.0989,-0.00011486,-2.116e-05,0.0,0 STARLINK-4592,1 53634U 22104AY  24101.76465989 -.00002116  00000-0 -11486-3 0  9997,2 53634  53.2177 117.1319 0001617  82.0186 278.0989 15.08841892 90863,6917.875,95.437,540.858,538.621,0.0
53634.0,STARLINK-4592,PAYLOAD,2024-04-11 05:28:49,15.08831108,0.000162,53.2172,115.0506,82.1854,277.9322,-3.988e-05,-9.23e-06,0.0,0 STARLINK-4592,1 53634U 22104AY  24102.22834591 -.00000923  00000-0 -39880-4 0  9991,2 53634  53.2172 115.0506 0001620  82.1854 277.9322 15.08831108 89912,6917.908,95.438,540.893,538.652,0.0
53634.0,STARLINK-4592,PAYLOAD,2024-04-11 07:04:12,15.08831643,0.0001461,53.216,114.7529,85.5526,274.5633,-2.481e-05,-6.83e-06,0.0,0 STARLINK-4592,1 53634U 22104AY  24102.29458466 -.00000683  00000-0 -24810-4 0  9991,2 53634  53.2160 114.7529 0001461  85.5526 274.5633 15.08831643 90943,6917.906,95.438,540.782,538.76,0.0
53634.0,STARLINK-4592,PAYLOAD,2024-04-11 18:11:53,15.08838093,0.0001492,53.2167,112.6708,87.3598,272.7565,4.0555e-06,-2.23e-06,0.0,0 STARLINK-4592,1 53634U 22104AY  24102.75826042 -.00000223  00000-0  40555-5 0  9995,2 53634  53.2167 112.6708 0001492  87.3598 272.7565 15.08838093 89992,6917.886,95.438,540.783,538.719,0.0
53634.0,STARLINK-4592,PAYLOAD,2024-04-12 05:19:35,15.08845609,0.0001457,53.2164,110.589,86.7954,273.3205,4.5334e-05,4.34e-06,0.0,0 STARLINK-4592,1 53634U 22104AY  24103.22193339  .00000434  00000-0  45334-4 0  9996,2 53634  53.2164 110.5890 0001457  86.7954 273.3205 15.08845609 90067,6917.863,95.437,540.736,538.72,0.0
53634.0,STARLINK-4592,PAYLOAD,2024-04-12 10:05:44,15.08846623,0.0001467,53.2164,109.697,86.6018,273.5142,5.277e-05,5.52e-06,0.0,0 STARLINK-4592,1 53634U 22104AY  24103.42065171  .00000552  00000-0  52770-4 0  9993,2 53634  53.2164 109.6970 0001467  86.6018 273.5142 15.08846623 91112,6917.86,95.437,540.74,538.71,0.0
53634.0,STARLINK-4592,PAYLOAD,2024-04-13 05:10:22,15.08833587,0.0001437,53.2162,106.1287,85.3299,274.7857,3.3795e-05,2.5e-06,0.0,0 STARLINK-4592,1 53634U 22104AY  24104.21554074  .00000250  00000-0  33795-4 0  9997,2 53634  53.2162 106.1287 0001437  85.3299 274.7857 15.08833587 90218,6917.9,95.438,540.759,538.771,0.0
53634.0,STARLINK-4592,PAYLOAD,2024-04-13 09:56:32,15.08836976,0.000142,53.2161,105.2365,83.1083,277.007,1.1065e-05,-1.12e-06,0.0,0 STARLINK-4592,1 53634U 22104AY  24104.41425985 -.00000112  00000-0  11065-4 0  9991,2 53634  53.2161 105.2365 0001420  83.1083 277.0070 15.08836976 91267,6917.89,95.438,540.737,538.772,0.0
53634.0,STARLINK-4592,PAYLOAD,2024-04-14 05:01:09,15.08839328,0.0001578,53.217,101.6678,88.229,271.8883,-6.4495e-05,-1.314e-05,0.0,0 STARLINK-4592,1 53634U 22104AY  24105.20914198 -.00001314  00000-0 -64495-4 0  9999,2 53634  53.2170 101.6678 0001578  88.2290 271.8883 15.08839328 91385,6917.882,95.438,540.839,538.656,0.0
53634.0,STARLINK-4592,PAYLOAD,2024-04-15 04:51:57,15.0883232,0.0001548,53.2174,97.2074,99.8866,260.2301,-2.053e-05,-6.15e-06,0.0,0 STARLINK-4592,1 53634U 22104AY  24106.20274659 -.00000615  00000-0 -20530-4 0  9996,2 53634  53.2174  97.2074 0001548  99.8866 260.2301 15.08832320 90519,6917.904,95.438,540.84,538.698,0.0
53634.0,STARLINK-4592,PAYLOAD,2024-04-15 09:38:06,15.08832963,0.0001528,53.2174,96.3152,97.8749,262.2416,-1.4774e-05,-5.23e-06,0.0,0 STARLINK-4592,1 53634U 22104AY  24106.40146690 -.00000523  00000-0 -14774-4 0  9992,2 53634  53.2174  96.3152 0001528  97.8749 262.2416 15.08832963 91560,6917.902,95.438,540.824,538.71,0.0
53634.0,STARLINK-4592,PAYLOAD,2024-04-16 06:18:07,15.0883694,0.0001406,53.2173,92.4513,87.1608,272.9545,3.9474e-05,3.4e-06,0.0,0 STARLINK-4592,1 53634U 22104AY  24107.26258624  .00000340  00000-0  39474-4 0  9997,2 53634  53.2173  92.4513 0001406  87.1608 272.9545 15.08836940 90679,6917.89,95.438,540.727,538.782,0.0
53634.0,STARLINK-4592,PAYLOAD,2024-04-16 15:50:26,15.08838615,0.0001395,53.2173,90.6681,97.2347,262.8804,7.1747e-05,8.54e-06,0.0,0 STARLINK-4592,1 53634U 22104AY  24107.66002393  .00000854  00000-0  71747-4 0  9990,2 53634  53.2173  90.6681 0001395  97.2347 262.8804 15.08838615 91751,6917.885,95.438,540.715,538.785,0.0
53634.0,STARLINK-4592,PAYLOAD,2024-04-17 04:33:30,15.08843445,0.000131,53.2171,88.2886,96.8063,263.3078,7.0222e-05,8.3e-06,0.0,0 STARLINK-4592,1 53634U 22104AY  24108.18994020  .00000830  00000-0  70222-4 0  9996,2 53634  53.2171  88.2886 0001310  96.8063 263.3078 15.08843445 90818,6917.87,95.437,540.641,538.829,0.0
53634.0,STARLINK-4592,PAYLOAD,2024-04-17 07:44:17,15.08843378,0.0001291,53.2169,87.6937,95.9501,264.1638,6.6534e-05,7.71e-06,0.0,0 STARLINK-4592,1 53634U 22104AY  24108.32242001  .00000771  00000-0  66534-4 0  9992,2 53634  53.2169  87.6937 0001291  95.9501 264.1638 15.08843378 91851,6917.87,95.437,540.628,538.842,0.0
53634.0,STARLINK-4592,PAYLOAD,2024-04-18 04:24:19,15.08828915,0.0001466,53.2167,83.8268,120.5473,239.5664,-0.00010955,-2.03e-05,0.0,0 STARLINK-4592,1 53634U 22104AY  24109.18355911 -.00002030  00000-0 -10955-3 0  9999,2 53634  53.2167  83.8268 0001466 120.5473 239.5664 15.08828915 90967,6917.914,95.438,540.793,538.765,0.0
53634.0,STARLINK-4592,PAYLOAD,2024-04-18 05:59:42,15.08827663,0.0001331,53.2172,83.5291,111.5075,248.6059,-8.2479e-05,-1.6e-05,0.0,0 STARLINK-4592,1 53634U 22104AY  24109.24979914 -.00001600  00000-0 -82479-4 0  9994,2 53634  53.2172  83.5291 0001331 111.5075 248.6059 15.08827663 91997,6917.918,95.438,540.704,538.862,0.0
53634.0,STARLINK-4592,PAYLOAD,2024-04-18 21:53:33,15.08835378,0.0001378,53.2182,80.5533,91.7107,268.4043,-5.9857e-05,-1.24e-05,0.0,0 STARLINK-4592,1 53634U 22104AY  24109.91219754 -.00001240  00000-0 -59857-4 0  9991,2 53634  53.2182  80.5533 0001378  91.7107 268.4043 15.08835378 92097,6917.895,95.438,540.713,538.806,0.0
53634.0,STARLINK-4592,PAYLOAD,2024-04-19 04:15:05,15.08841404,0.0001525,53.2179,79.3683,81.2067,278.9098,8.986e-06,-1.45e-06,0.0,0 STARLINK-4592,1 53634U 22104AY  24110.17715194 -.00000145  00000-0  89860-5 0  9990,2 53634  53.2179  79.3683 0001525  81.2067 278.9098 15.08841404 91113,6917.876,95.437,540.796,538.686,0.0
53634.0,STARLINK-4592,PAYLOAD,2024-04-19 07:25:51,15.08846749,0.0001482,53.218,78.77,87.8678,272.2484,5.3797e-05,5.68e-06,0.0,0 STARLINK-4592,1 53634U 22104AY  24110.30962595  .00000568  00000-0  53797-4 0  9991,2 53634  53.2180  78.7700 0001482  87.8678 272.2484 15.08846749 92158,6917.86,95.437,540.75,538.7,0.0
53634.0,STARLINK-4592,PAYLOAD,2024-04-20 04:05:50,15.0886481,0.0001591,53.218,74.9044,109.5257,250.5907,0.0002694,4.005e-05,0.0,0 STARLINK-4592,1 53634U 22104AY  24111.17072550  .00004005  00000-0  26940-3 0  9999,2 53634  53.2180  74.9044 0001591 109.5257 250.5907 15.08864810 91262,6917.805,95.436,540.77,538.569,0.0
53634.0,STARLINK-4592,PAYLOAD,2024-04-21 03:56:41,15.08826354,0.0001352,53.2185,70.4436,102.4954,257.6189,-0.00019792,-3.435e-05,0.0,0 STARLINK-4592,1 53634U 22104AY  24112.16437029 -.00003435  00000-0 -19792-3 0  9990,2 53634  53.2185  70.4436 0001352 102.4954 257.6189 15.08826354 91412,6917.922,95.438,540.722,538.852,0.0
53634.0,STARLINK-4592,PAYLOAD,2024-04-21 07:07:27,15.08825329,0.0001353,53.2184,69.8492,107.6448,252.4692,-0.00019672,-3.416e-05,0.0,0 STARLINK-4592,1 53634U 22104AY  24112.29685162 -.00003416  00000-0 -19672-3 0  9993,2 53634  53.2184  69.8492 0001353 107.6448 252.4692 15.08825329 92459,6917.925,95.438,540.726,538.854,0.0
53634.0,STARLINK-4592,PAYLOAD,2024-04-22 03:47:22,15.08913414,0.0001188,53.2186,65.9878,116.4234,243.688,0.00034555,5.227e-05,0.0,0 STARLINK-4592,1 53634U 22104AY  24113.15789370  .00005227  00000-0  34555-3 0  9992,2 53634  53.2186  65.9878 0001188 116.4234 243.6880 15.08913414 91568,6917.656,95.433,540.343,538.699,0.0
53634.0,STARLINK-4592,PAYLOAD,2024-04-22 19:41:16,15.08852638,8.54e-05,53.2177,63.0154,93.1485,266.9605,0.00021214,3.091e-05,0.0,0 STARLINK-4592,1 53634U 22104AY  24113.82032874  .00003091  00000-0  21214-3 0  9991,2 53634  53.2177  63.0154 0000854  93.1485 266.9605 15.08852638 91666,6917.842,95.437,540.298,539.116,0.0
53634.0,STARLINK-4592,PAYLOAD,2024-04-23 03:38:15,15.08804188,8.02e-05,53.2179,61.5291,94.9706,265.1378,-0.00017166,-3.016e-05,0.0,0 STARLINK-4592,1 53634U 22104AY  24114.15157251 -.00003016  00000-0 -17166-3 0  9995,2 53634  53.2179  61.5291 0000802  94.9706 265.1378 15.08804188 91712,6917.99,95.44,540.41,539.3,0.0
53634.0,STARLINK-4592,PAYLOAD,2024-04-23 19:32:07,15.08814674,8.93e-05,53.218,58.5516,87.218,272.8915,-0.00029695,-5.007e-05,0.0,0 STARLINK-4592,1 53634U 22104AY  24114.81398088 -.00005007  00000-0 -29695-3 0  9995,2 53634  53.2180  58.5516 0000893  87.2180 272.8915 15.08814674 91815,6917.958,95.439,540.441,539.205,0.0
53634.0,STARLINK-4592,PAYLOAD,2024-04-24 03:29:01,15.08872477,9.75e-05,53.2186,57.0661,93.9083,266.2021,-0.00040926,-6.801e-05,0.0,0 STARLINK-4592,1 53634U 22104AY  24115.14515222 -.00006801  00000-0 -40926-3 0  9996,2 53634  53.2186  57.0661 0000975  93.9083 266.2021 15.08872477 91868,6917.781,95.436,540.321,538.972,0.0
53634.0,STARLINK-4592,PAYLOAD,2024-04-24 05:04:23,15.08875691,9.45e-05,53.2184,56.7667,111.793,248.3162,-0.00038184,-6.365e-05,0.0,0 STARLINK-4592,1 53634U 22104AY  24115.21138757 -.00006365  00000-0 -38184-3 0  9996,2 53634  53.2184  56.7667 0000945 111.7930 248.3162 15.08875691 92897,6917.771,95.435,540.29,538.983,0.0
53634.0,STARLINK-4592,PAYLOAD,2024-04-25 04:55:11,15.08833293,0.0002762,53.2194,52.3024,149.3217,210.7937,0.00017039,2.424e-05,0.0,0 STARLINK-4592,1 53634U 22104AY  24116.20499072  .00002424  00000-0  17039-3 0  9992,2 53634  53.2194  52.3024 0002762 149.3217 210.7937 15.08833293 92021,6917.901,95.438,541.677,537.855,0.0
